{
  "norad_id": 63309,
  "name": "STARLINK-11585 [DTC]",
  "history": [
    {
      "epoch": "2026-03-28T20:29:38.037408",
      "apogee_km": 357.00988351749857,
      "perigee_km": 355.60400100011157,
      "latitude_deg": -34.396423920264596,
      "longitude_deg": -127.12440287997015,
      "semi_major_axis_km": 6734.443942258805,
      "eccentricity": 0.00010438,
      "inclination_deg": 43.0004,
      "raan_deg": 148.837,
      "arg_perigee_deg": 357.6773,
      "mean_anomaly_deg": 2.4089,
      "mean_motion_rev_day": 15.7090582
    }
  ]
}